[
  {
    "OBJECT_NAME": "STARLINK-31396",
    "OBJECT_ID": "24064M",
    "EPOCH": "2025-11-11T02:54:33.458112",
    "MEAN_MOTION": 15.27573541,
    "ECCENTRICITY": 0.000102,
    "INCLINATION": 43.0035,
    "RA_OF_ASC_NODE": 355.2772,
    "ARG_OF_PERICENTER": 270.3181,
    "MEAN_ANOMALY": 89.7554,
    "EPHEMERIS_TYPE": 0,
    "CLASSIFICATION_TYPE": "U",
    "NORAD_CAT_ID": 59409,
    "ELEMENT_SET_NO": 999,
    "REV_AT_EPOCH": 9115,
    "BSTAR": 0.00014134,
    "MEAN_MOTION_DOT": 3.629e-05,
    "MEAN_MOTION_DDOT": 0.0,
    "TLE_LINE1": "1 59409U 24064M   25315.12122058  .00003629  00000+0  14134-3 0  9995",
    "TLE_LINE2": "2 59409  43.0035 355.2772 0001020 270.3181  89.7554 15.27573541 91154",
    "COMMENT": "Grouped by shell and plane from TLE"
  },
  {
    "OBJECT_NAME": "STARLINK-31457",
    "OBJECT_ID": "24064S",
    "EPOCH": "2025-11-11T03:17:55.840704",
    "MEAN_MOTION": 15.27556266,
    "ECCENTRICITY": 0.0001063,
    "INCLINATION": 42.9993,
    "RA_OF_ASC_NODE": 358.8402,
    "ARG_OF_PERICENTER": 280.3402,
    "MEAN_ANOMALY": 79.733,
    "EPHEMERIS_TYPE": 0,
    "CLASSIFICATION_TYPE": "U",
    "NORAD_CAT_ID": 59414,
    "ELEMENT_SET_NO": 999,
    "REV_AT_EPOCH": 9117,
    "BSTAR": 0.00044051,
    "MEAN_MOTION_DOT": 0.00011871,
    "MEAN_MOTION_DDOT": 0.0,
    "TLE_LINE1": "1 59414U 24064S   25315.13745186  .00011871  00000+0  44051-3 0  9994",
    "TLE_LINE2": "2 59414  42.9993 358.8402 0001063 280.3402  79.7330 15.27556266 91172",
    "COMMENT": "Grouped by shell and plane from TLE"
  },
  {
    "OBJECT_NAME": "STARLINK-31401",
    "OBJECT_ID": "24064V",
    "EPOCH": "2025-11-11T04:42:49.900896",
    "MEAN_MOTION": 15.27568394,
    "ECCENTRICITY": 0.0001139,
    "INCLINATION": 43.0027,
    "RA_OF_ASC_NODE": 358.4475,
    "ARG_OF_PERICENTER": 280.8684,
    "MEAN_ANOMALY": 79.2039,
    "EPHEMERIS_TYPE": 0,
    "CLASSIFICATION_TYPE": "U",
    "NORAD_CAT_ID": 59417,
    "ELEMENT_SET_NO": 999,
    "REV_AT_EPOCH": 9093,
    "BSTAR": 0.0,
    "MEAN_MOTION_DOT": -3.637e-05,
    "MEAN_MOTION_DDOT": 0.0,
    "TLE_LINE1": "1 59417U 24064V   25315.19641089 -.00003637  00000+0 -12276-3 0  9997",
    "TLE_LINE2": "2 59417  43.0027 358.4475 0001139 280.8684  79.2039 15.27568394 90931",
    "COMMENT": "Grouped by shell and plane from TLE"
  },
  {
    "OBJECT_NAME": "STARLINK-31776",
    "OBJECT_ID": "24080C",
    "EPOCH": "2025-11-11T02:31:06.146400",
    "MEAN_MOTION": 15.27561373,
    "ECCENTRICITY": 0.0001757,
    "INCLINATION": 43.0015,
    "RA_OF_ASC_NODE": 351.3353,
    "ARG_OF_PERICENTER": 276.5833,
    "MEAN_ANOMALY": 83.4818,
    "EPHEMERIS_TYPE": 0,
    "CLASSIFICATION_TYPE": "U",
    "NORAD_CAT_ID": 59603,
    "ELEMENT_SET_NO": 999,
    "REV_AT_EPOCH": 8635,
    "BSTAR": 0.0,
    "MEAN_MOTION_DOT": -7.127e-05,
    "MEAN_MOTION_DDOT": 0.0,
    "TLE_LINE1": "1 59603U 24080C   25315.10493225 -.00007127  00000+0 -24984-3 0  9997",
    "TLE_LINE2": "2 59603  43.0015 351.3353 0001757 276.5833  83.4818 15.27561373 86359",
    "COMMENT": "Grouped by shell and plane from TLE"
  },
  {
    "OBJECT_NAME": "STARLINK-31782",
    "OBJECT_ID": "24080F",
    "EPOCH": "2025-11-11T04:20:04.183008",
    "MEAN_MOTION": 15.27581501,
    "ECCENTRICITY": 0.0001402,
    "INCLINATION": 43.0005,
    "RA_OF_ASC_NODE": 351.0373,
    "ARG_OF_PERICENTER": 245.4043,
    "MEAN_ANOMALY": 114.6662,
    "EPHEMERIS_TYPE": 0,
    "CLASSIFICATION_TYPE": "U",
    "NORAD_CAT_ID": 59606,
    "ELEMENT_SET_NO": 999,
    "REV_AT_EPOCH": 8636,
    "BSTAR": 0.00017769,
    "MEAN_MOTION_DOT": 4.631e-05,
    "MEAN_MOTION_DDOT": 0.0,
    "TLE_LINE1": "1 59606U 24080F   25315.18060397  .00004631  00000+0  17769-3 0  9996",
    "TLE_LINE2": "2 59606  43.0005 351.0373 0001402 245.4043 114.6662 15.27581501 86365",
    "COMMENT": "Grouped by shell and plane from TLE"
  },
  {
    "OBJECT_NAME": "STARLINK-31755",
    "OBJECT_ID": "24080G",
    "EPOCH": "2025-11-11T02:51:28.032480",
    "MEAN_MOTION": 15.27562548,
    "ECCENTRICITY": 8.71e-05,
    "INCLINATION": 43.0003,
    "RA_OF_ASC_NODE": 351.4377,
    "ARG_OF_PERICENTER": 278.368,
    "MEAN_ANOMALY": 81.7072,
    "EPHEMERIS_TYPE": 0,
    "CLASSIFICATION_TYPE": "U",
    "NORAD_CAT_ID": 59607,
    "ELEMENT_SET_NO": 999,
    "REV_AT_EPOCH": 8635,
    "BSTAR": 0.00020906,
    "MEAN_MOTION_DOT": 5.492e-05,
    "MEAN_MOTION_DDOT": 0.0,
    "TLE_LINE1": "1 59607U 24080G   25315.11907445  .00005492  00000+0  20906-3 0  9997",
    "TLE_LINE2": "2 59607  43.0003 351.4377 0000871 278.3680  81.7072 15.27562548 86351",
    "COMMENT": "Grouped by shell and plane from TLE"
  },
  {
    "OBJECT_NAME": "STARLINK-31746",
    "OBJECT_ID": "24080N",
    "EPOCH": "2025-11-11T04:31:09.228864",
    "MEAN_MOTION": 15.27589912,
    "ECCENTRICITY": 0.000164,
    "INCLINATION": 43.0006,
    "RA_OF_ASC_NODE": 351.0703,
    "ARG_OF_PERICENTER": 244.8697,
    "MEAN_ANOMALY": 115.1984,
    "EPHEMERIS_TYPE": 0,
    "CLASSIFICATION_TYPE": "U",
    "NORAD_CAT_ID": 59613,
    "ELEMENT_SET_NO": 999,
    "REV_AT_EPOCH": 8636,
    "BSTAR": 0.00031693,
    "MEAN_MOTION_DOT": 8.472e-05,
    "MEAN_MOTION_DDOT": 0.0,
    "TLE_LINE1": "1 59613U 24080N   25315.18830126  .00008472  00000+0  31693-3 0  9998",
    "TLE_LINE2": "2 59613  43.0006 351.0703 0001640 244.8697 115.1984 15.27589912 86360",
    "COMMENT": "Grouped by shell and plane from TLE"
  },
  {
    "OBJECT_NAME": "STARLINK-31784",
    "OBJECT_ID": "24080T",
    "EPOCH": "2025-11-11T02:36:39.830976",
    "MEAN_MOTION": 15.27579708,
    "ECCENTRICITY": 0.0001545,
    "INCLINATION": 43.0025,
    "RA_OF_ASC_NODE": 351.3618,
    "ARG_OF_PERICENTER": 272.1977,
    "MEAN_ANOMALY": 87.8697,
    "EPHEMERIS_TYPE": 0,
    "CLASSIFICATION_TYPE": "U",
    "NORAD_CAT_ID": 59618,
    "ELEMENT_SET_NO": 999,
    "REV_AT_EPOCH": 8635,
    "BSTAR": 0.00020166000000000002,
    "MEAN_MOTION_DOT": 5.291e-05,
    "MEAN_MOTION_DDOT": 0.0,
    "TLE_LINE1": "1 59618U 24080T   25315.10879434  .00005291  00000+0  20166-3 0  9999",
    "TLE_LINE2": "2 59618  43.0025 351.3618 0001545 272.1977  87.8697 15.27579708 86350",
    "COMMENT": "Grouped by shell and plane from TLE"
  },
  {
    "OBJECT_NAME": "STARLINK-31777",
    "OBJECT_ID": "24080U",
    "EPOCH": "2025-11-11T04:16:22.263744",
    "MEAN_MOTION": 15.2757507,
    "ECCENTRICITY": 0.000206,
    "INCLINATION": 43.0003,
    "RA_OF_ASC_NODE": 351.0183,
    "ARG_OF_PERICENTER": 277.2567,
    "MEAN_ANOMALY": 82.805,
    "EPHEMERIS_TYPE": 0,
    "CLASSIFICATION_TYPE": "U",
    "NORAD_CAT_ID": 59619,
    "ELEMENT_SET_NO": 999,
    "REV_AT_EPOCH": 8636,
    "BSTAR": 0.00015997,
    "MEAN_MOTION_DOT": 4.141e-05,
    "MEAN_MOTION_DDOT": 0.0,
    "TLE_LINE1": "1 59619U 24080U   25315.17803546  .00004141  00000+0  15997-3 0  9997",
    "TLE_LINE2": "2 59619  43.0003 351.0183 0002060 277.2567  82.8050 15.27575070 86362",
    "COMMENT": "Grouped by shell and plane from TLE"
  },
  {
    "OBJECT_NAME": "STARLINK-31589",
    "OBJECT_ID": "24084A",
    "EPOCH": "2025-11-11T03:13:34.510080",
    "MEAN_MOTION": 15.27573149,
    "ECCENTRICITY": 0.0001,
    "INCLINATION": 43.0021,
    "RA_OF_ASC_NODE": 351.1714,
    "ARG_OF_PERICENTER": 274.6984,
    "MEAN_ANOMALY": 85.3753,
    "EPHEMERIS_TYPE": 0,
    "CLASSIFICATION_TYPE": "U",
    "NORAD_CAT_ID": 59654,
    "ELEMENT_SET_NO": 999,
    "REV_AT_EPOCH": 8626,
    "BSTAR": 5.1620000000000004e-05,
    "MEAN_MOTION_DOT": 1.158e-05,
    "MEAN_MOTION_DDOT": 0.0,
    "TLE_LINE1": "1 59654U 24084A   25315.13442720  .00001158  00000+0  51620-4 0  9998",
    "TLE_LINE2": "2 59654  43.0021 351.1714 0001000 274.6984  85.3753 15.27573149 86261",
    "COMMENT": "Grouped by shell and plane from TLE"
  },
  {
    "OBJECT_NAME": "STARLINK-31912",
    "OBJECT_ID": "24084C",
    "EPOCH": "2025-11-11T03:54:16.400448",
    "MEAN_MOTION": 15.27584202,
    "ECCENTRICITY": 0.000196,
    "INCLINATION": 43.0057,
    "RA_OF_ASC_NODE": 351.3837,
    "ARG_OF_PERICENTER": 269.59,
    "MEAN_ANOMALY": 90.4727,
    "EPHEMERIS_TYPE": 0,
    "CLASSIFICATION_TYPE": "U",
    "NORAD_CAT_ID": 59656,
    "ELEMENT_SET_NO": 999,
    "REV_AT_EPOCH": 8624,
    "BSTAR": 0.00033178000000000005,
    "MEAN_MOTION_DOT": 8.88e-05,
    "MEAN_MOTION_DDOT": 0.0,
    "TLE_LINE1": "1 59656U 24084C   25315.16268982  .00008880  00000+0  33178-3 0  9995",
    "TLE_LINE2": "2 59656  43.0057 351.3837 0001960 269.5900  90.4727 15.27584202 86244",
    "COMMENT": "Grouped by shell and plane from TLE"
  },
  {
    "OBJECT_NAME": "STARLINK-31904",
    "OBJECT_ID": "24084D",
    "EPOCH": "2025-11-11T03:39:28.781280",
    "MEAN_MOTION": 15.27574847,
    "ECCENTRICITY": 7.91e-05,
    "INCLINATION": 43.0031,
    "RA_OF_ASC_NODE": 351.2994,
    "ARG_OF_PERICENTER": 263.4644,
    "MEAN_ANOMALY": 96.6118,
    "EPHEMERIS_TYPE": 0,
    "CLASSIFICATION_TYPE": "U",
    "NORAD_CAT_ID": 59657,
    "ELEMENT_SET_NO": 999,
    "REV_AT_EPOCH": 8624,
    "BSTAR": 3.8017000000000005e-05,
    "MEAN_MOTION_DOT": 7.84e-06,
    "MEAN_MOTION_DDOT": 0.0,
    "TLE_LINE1": "1 59657U 24084D   25315.15241645  .00000784  00000+0  38017-4 0  9995",
    "TLE_LINE2": "2 59657  43.0031 351.2994 0000791 263.4644  96.6118 15.27574847 86245",
    "COMMENT": "Grouped by shell and plane from TLE"
  },
  {
    "OBJECT_NAME": "STARLINK-31858",
    "OBJECT_ID": "24084E",
    "EPOCH": "2025-11-11T03:02:28.594176",
    "MEAN_MOTION": 15.27561399,
    "ECCENTRICITY": 0.0001997,
    "INCLINATION": 43.0039,
    "RA_OF_ASC_NODE": 351.1089,
    "ARG_OF_PERICENTER": 270.0398,
    "MEAN_ANOMALY": 90.0225,
    "EPHEMERIS_TYPE": 0,
    "CLASSIFICATION_TYPE": "U",
    "NORAD_CAT_ID": 59658,
    "ELEMENT_SET_NO": 999,
    "REV_AT_EPOCH": 8624,
    "BSTAR": 0.0,
    "MEAN_MOTION_DOT": -1.774e-05,
    "MEAN_MOTION_DDOT": 0.0,
    "TLE_LINE1": "1 59658U 24084E   25315.12671984 -.00001774  00000+0 -54991-4 0  9997",
    "TLE_LINE2": "2 59658  43.0039 351.1089 0001997 270.0398  90.0225 15.27561399 86242",
    "COMMENT": "Grouped by shell and plane from TLE"
  }
]